[
  {
    "iso": "NU",
    "name": "NIUE",
    "niceName": "Niue",
    "iso3": "NIU",
    "numCode": "570",
    "phoneCode": "683",
    "currency": "NZD"
  },
  {
    "iso": "CM",
    "name": "CAMEROON",
    "niceName": "Cameroon",
    "iso3": "CMR",
    "numCode": "120",
    "phoneCode": "237",
    "currency": "XAF"
  },
  {
    "iso": "NF",
    "name": "NORFOLK ISLAND",
    "niceName": "Norfolk Island",
    "iso3": "NFK",
    "numCode": "574",
    "phoneCode": "672",
    "currency": "AUD"
  },
  {
    "iso": "CA",
    "name": "CANADA",
    "niceName": "Canada",
    "iso3": "CAN",
    "numCode": "124",
    "phoneCode": "1",
    "currency": "CAD"
  },
  {
    "iso": "MP",
    "niceName": "Northern Mariana Islands",
    "iso3": "MNP",
    "numCode": "580",
    "phoneCode": "1670",
    "currency": "USD"
  },
  {
    "iso": "CV",
    "name": "CAPE VERDE",
    "niceName": "Cape Verde",
    "iso3": "CPV",
    "numCode": "132",
    "phoneCode": "238",
    "currency": "CVE"
  },
  {
    "iso": "NO",
    "name": "NORWAY",
    "niceName": "Norway",
    "iso3": "NOR",
    "numCode": "578",
    "phoneCode": "47",
    "currency": "NOK"
  },
  {
    "iso": "OM",
    "name": "OMAN",
    "niceName": "Oman",
    "iso3": "OMN",
    "numCode": "512",
    "phoneCode": "968",
    "currency": "OMR"
  },
  {
    "iso": "KY",
    "name": "CAYMAN ISLANDS",
    "niceName": "Cayman Islands",
    "iso3": "CYM",
    "numCode": "136",
    "phoneCode": "1345",
    "currency": "KYD"
  },
  {
    "iso": "PK",
    "name": "PAKISTAN",
    "niceName": "Pakistan",
    "iso3": "PAK",
    "numCode": "586",
    "phoneCode": "92",
    "currency": "PKR"
  },
  {
    "iso": "PW",
    "name": "PALAU",
    "niceName": "Palau",
    "iso3": "PLW",
    "numCode": "585",
    "phoneCode": "680",
    "currency": "USD"
  },
  {
    "iso": "SB",
    "name": "SOLOMON ISLANDS",
    "niceName": "Solomon Islands",
    "iso3": "SLB",
    "numCode": "90",
    "phoneCode": "677",
    "currency": "SBD"
  },
  {
    "iso": "NL",
    "name": "NETHERLANDS",
    "niceName": "Netherlands",
    "iso3": "NLD",
    "numCode": "528",
    "phoneCode": "31",
    "currency": "EUR"
  },
  {
    "iso": "SO",
    "name": "SOMALIA",
    "niceName": "Somalia",
    "iso3": "SOM",
    "numCode": "706",
    "phoneCode": "252",
    "currency": "SOS"
  },
  {
    "iso": "AN",
    "name": "NETHERLANDS ANTILLES",
    "niceName": "Netherlands Antilles",
    "iso3": "ANT",
    "numCode": "530",
    "phoneCode": "599",
    "currency": "ANG"
  },
  {
    "iso": "ZA",
    "name": "SOUTH AFRICA",
    "niceName": "South Africa",
    "iso3": "ZAF",
    "numCode": "710",
    "phoneCode": "27",
    "currency": "ZAR"
  },
  {
    "iso": "NC",
    "name": "NEW CALEDONIA",
    "niceName": "New Caledonia",
    "iso3": "NCL",
    "numCode": "540",
    "phoneCode": "687",
    "currency": "XPF"
  },
  {
    "iso": "GS",
    "name": "SOUTH GEORGIA AND THE SOUTH SANDWICH ISLANDS",
    "niceName": "South Georgia and the South Sandwich Islands",
    "iso3": null,
    "numCode": null,
    "phoneCode": "0",
    "currency": "GBP"
  },
  {
    "iso": "NZ",
    "name": "NEW ZEALAND",
    "niceName": "New Zealand",
    "iso3": "NZL",
    "numCode": "554",
    "phoneCode": "64",
    "currency": "NZD"
  },
  {
    "iso": "NI",
    "name": "NICARAGUA",
    "niceName": "Nicaragua",
    "iso3": "NIC",
    "numCode": "558",
    "phoneCode": "505",
    "currency": "NIO"
  },
  {
    "iso": "NE",
    "name": "NIGER",
    "niceName": "Niger",
    "iso3": "NER",
    "numCode": "562",
    "phoneCode": "227",
    "currency": "XOF"
  },
  {
    "iso": "NG",
    "name": "NIGERIA",
    "niceName": "Nigeria",
    "iso3": "NGA",
    "numCode": "566",
    "phoneCode": "234",
    "currency": "NGN"
  },
  {
    "iso": "PT",
    "name": "PORTUGAL",
    "niceName": "Portugal",
    "iso3": "PRT",
    "numCode": "620",
    "phoneCode": "351",
    "currency": "EUR"
  },
  {
    "iso": "PR",
    "name": "PUERTO RICO",
    "niceName": "Puerto Rico",
    "iso3": "PRI",
    "numCode": "630",
    "phoneCode": "1787",
    "currency": "USD"
  },
  {
    "iso": "ES",
    "name": "SPAIN",
    "niceName": "Spain",
    "iso3": "ESP",
    "numCode": "724",
    "phoneCode": "34",
    "currency": "EUR"
  },
  {
    "iso": "QA",
    "name": "QATAR",
    "niceName": "Qatar",
    "iso3": "QAT",
    "numCode": "634",
    "phoneCode": "974",
    "currency": "QAR"
  },
  {
    "iso": "TN",
    "name": "TUNISIA",
    "niceName": "Tunisia",
    "iso3": "TUN",
    "numCode": "788",
    "phoneCode": "216",
    "currency": "TND"
  },
  {
    "iso": "CF",
    "name": "CENTRAL AFRICAN REPUBLIC",
    "niceName": "Central African Republic",
    "iso3": "CAF",
    "numCode": "140",
    "phoneCode": "236",
    "currency": "XAF"
  },
  {
    "iso": "SD",
    "name": "SUDAN",
    "niceName": "Sudan",
    "iso3": "SDN",
    "numCode": "736",
    "phoneCode": "249",
    "currency": "SDG"
  },
  {
    "iso": "TH",
    "name": "THAILAND",
    "niceName": "Thailand",
    "iso3": "THA",
    "numCode": "764",
    "phoneCode": "66",
    "currency": "THB"
  },
  {
    "iso": "TR",
    "name": "TURKEY",
    "niceName": "Turkey",
    "iso3": "TUR",
    "numCode": "792",
    "phoneCode": "90",
    "currency": "TRY"
  },
  {
    "iso": "TD",
    "name": "CHAD",
    "niceName": "Chad",
    "iso3": "TCD",
    "numCode": "148",
    "phoneCode": "235",
    "currency": "XAF"
  },
  {
    "iso": "TM",
    "name": "TURKMENISTAN",
    "niceName": "Turkmenistan",
    "iso3": "TKM",
    "numCode": "795",
    "phoneCode": "7370",
    "currency": "TMT"
  },
  {
    "iso": "CL",
    "name": "CHILE",
    "niceName": "Chile",
    "iso3": "CHL",
    "numCode": "152",
    "phoneCode": "56",
    "currency": "CLP"
  },
  {
    "iso": "TC",
    "name": "TURKS AND CAICOS ISLANDS",
    "niceName": "Turks and Caicos Islands",
    "iso3": "TCA",
    "numCode": "796",
    "phoneCode": "1649",
    "currency": "USD"
  },
  {
    "iso": "CN",
    "name": "CHINA",
    "niceName": "China",
    "iso3": "CHN",
    "numCode": "156",
    "phoneCode": "86",
    "currency": "CNY"
  },
  {
    "iso": "TG",
    "name": "TOGO",
    "niceName": "Togo",
    "iso3": "TGO",
    "numCode": "768",
    "phoneCode": "228",
    "currency": "XOF"
  },
  {
    "iso": "TV",
    "name": "TUVALU",
    "niceName": "Tuvalu",
    "iso3": "TUV",
    "numCode": "798",
    "phoneCode": "688",
    "currency": "AUD"
  },
  {
    "iso": "TK",
    "name": "TOKELAU",
    "niceName": "Tokelau",
    "iso3": "TKL",
    "numCode": "772",
    "phoneCode": "690",
    "currency": "NZD"
  },
  {
    "iso": "SR",
    "name": "SURINAME",
    "niceName": "Suriname",
    "iso3": "SUR",
    "numCode": "740",
    "phoneCode": "597",
    "currency": "SRD"
  },
  {
    "iso": "TO",
    "name": "TONGA",
    "niceName": "Tonga",
    "iso3": "TON",
    "numCode": "776",
    "phoneCode": "676",
    "currency": "TOP"
  },
  {
    "iso": "SJ",
    "name": "SVALBARD AND JAN MAYEN",
    "niceName": "Svalbard and Jan Mayen",
    "iso3": "SJM",
    "numCode": "744",
    "phoneCode": "47",
    "currency": "NOK"
  },
  {
    "iso": "SA",
    "name": "SAUDI ARABIA",
    "niceName": "Saudi Arabia",
    "iso3": "SAU",
    "numCode": "682",
    "phoneCode": "966",
    "currency": "SAR"
  },
  {
    "iso": "TT",
    "name": "TRINIDAD AND TOBAGO",
    "niceName": "Trinidad and Tobago",
    "iso3": "TTO",
    "numCode": "780",
    "phoneCode": "1868",
    "currency": "TTD"
  },
  {
    "iso": "UG",
    "name": "UGANDA",
    "niceName": "Uganda",
    "iso3": "UGA",
    "numCode": "800",
    "phoneCode": "256",
    "currency": "UGX"
  },
  {
    "iso": "SN",
    "name": "SENEGAL",
    "niceName": "Senegal",
    "iso3": "SEN",
    "numCode": "686",
    "phoneCode": "221",
    "currency": "XOF"
  },
  {
    "iso": "KN",
    "name": "SAINT KITTS AND NEVIS",
    "niceName": "Saint Kitts and Nevis",
    "iso3": "KNA",
    "numCode": "659",
    "phoneCode": "1869",
    "currency": "XCD"
  },
  {
    "iso": "UA",
    "name": "UKRAINE",
    "niceName": "Ukraine",
    "iso3": "UKR",
    "numCode": "804",
    "phoneCode": "380",
    "currency": "UAH"
  },
  {
    "iso": "SC",
    "name": "SEYCHELLES",
    "niceName": "Seychelles",
    "iso3": "SYC",
    "numCode": "690",
    "phoneCode": "248",
    "currency": "SCR"
  },
  {
    "iso": "SL",
    "name": "SIERRA LEONE",
    "niceName": "Sierra Leone",
    "iso3": "SLE",
    "numCode": "694",
    "phoneCode": "232",
    "currency": "SLL"
  },
  {
    "iso": "SG",
    "name": "SINGAPORE",
    "niceName": "Singapore",
    "iso3": "SGP",
    "numCode": "702",
    "phoneCode": "65",
    "currency": "SGD"
  },
  {
    "iso": "BR",
    "name": "BRAZIL",
    "niceName": "Brazil",
    "iso3": "BRA",
    "numCode": "76",
    "phoneCode": "55",
    "currency": "BRL"
  },
  {
    "iso": "SK",
    "name": "SLOVAKIA",
    "niceName": "Slovakia",
    "iso3": "SVK",
    "numCode": "703",
    "phoneCode": "421",
    "currency": "EUR"
  },
  {
    "iso": "IO",
    "name": "BRITISH INDIAN OCEAN TERRITORY",
    "niceName": "British Indian Ocean Territory",
    "iso3": null,
    "numCode": null,
    "phoneCode": "246",
    "currency": "USD"
  },
  {
    "iso": "SI",
    "name": "SLOVENIA",
    "niceName": "Slovenia",
    "iso3": "SVN",
    "numCode": "705",
    "phoneCode": "386",
    "currency": "EUR"
  },
  {
    "iso": "BG",
    "name": "BULGARIA",
    "niceName": "Bulgaria",
    "iso3": "BGR",
    "numCode": "100",
    "phoneCode": "359",
    "currency": "BGN"
  },
  {
    "iso": "VG",
    "name": "VIRGIN ISLANDS, BRITISH",
    "niceName": "Virgin Islands, British",
    "iso3": "VGB",
    "numCode": "92",
    "phoneCode": "1284",
    "currency": "USD"
  },
  {
    "iso": "IT",
    "name": "ITALY",
    "niceName": "Italy",
    "iso3": "ITA",
    "numCode": "380",
    "phoneCode": "39",
    "currency": "EUR"
  },
  {
    "iso": "BF",
    "name": "BURKINA FASO",
    "niceName": "Burkina Faso",
    "iso3": "BFA",
    "numCode": "854",
    "phoneCode": "226",
    "currency": "XOF"
  },
  {
    "iso": "JM",
    "name": "JAMAICA",
    "niceName": "Jamaica",
    "iso3": "JAM",
    "numCode": "388",
    "phoneCode": "1876",
    "currency": "JMD"
  },
  {
    "iso": "BI",
    "name": "BURUNDI",
    "niceName": "Burundi",
    "iso3": "BDI",
    "numCode": "108",
    "phoneCode": "257",
    "currency": "BIF"
  },
  {
    "iso": "WF",
    "name": "WALLIS AND FUTUNA",
    "niceName": "Wallis and Futuna",
    "iso3": "WLF",
    "numCode": "876",
    "phoneCode": "681",
    "currency": "XPF"
  },
  {
    "iso": "RE",
    "name": "REUNION",
    "niceName": "Reunion",
    "iso3": "REU",
    "numCode": "638",
    "phoneCode": "262",
    "currency": "EUR"
  },
  {
    "iso": "KH",
    "name": "CAMBODIA",
    "niceName": "Cambodia",
    "iso3": "KHM",
    "numCode": "116",
    "phoneCode": "855",
    "currency": "KHR"
  },
  {
    "iso": "JP",
    "name": "JAPAN",
    "niceName": "Japan",
    "iso3": "JPN",
    "numCode": "392",
    "phoneCode": "81",
    "currency": "JPY"
  },
  {
    "iso": "EH",
    "name": "WESTERN SAHARA",
    "niceName": "Western Sahara",
    "iso3": "ESH",
    "numCode": "732",
    "phoneCode": "212",
    "currency": "MAD"
  },
  {
    "iso": "CR",
    "name": "COSTA RICA",
    "niceName": "Costa Rica",
    "iso3": "CRI",
    "numCode": "188",
    "phoneCode": "506",
    "currency": "CRC"
  },
  {
    "iso": "YE",
    "name": "YEMEN",
    "niceName": "Yemen",
    "iso3": "YEM",
    "numCode": "887",
    "phoneCode": "967",
    "currency": "YER"
  },
  {
    "iso": "HR",
    "name": "CROATIA",
    "niceName": "Croatia",
    "iso3": "HRV",
    "numCode": "191",
    "phoneCode": "385",
    "currency": "HRK"
  },
  {
    "iso": "ZM",
    "name": "ZAMBIA",
    "niceName": "Zambia",
    "iso3": "ZMB",
    "numCode": "894",
    "phoneCode": "260",
    "currency": "ZMW"
  },
  {
    "iso": "CU",
    "name": "CUBA",
    "niceName": "Cuba",
    "iso3": "CUB",
    "numCode": "192",
    "phoneCode": "53",
    "currency": "CUP"
  },
  {
    "iso": "ZW",
    "name": "ZIMBABWE",
    "niceName": "Zimbabwe",
    "iso3": "ZWE",
    "numCode": "716",
    "phoneCode": "263",
    "currency": "ZWD"
  },
  {
    "iso": "CY",
    "name": "CYPRUS",
    "niceName": "Cyprus",
    "iso3": "CYP",
    "numCode": "196",
    "phoneCode": "357",
    "currency": "EUR"
  },
  {
    "iso": "GB",
    "name": "UNITED KINGDOM",
    "niceName": "United Kingdom",
    "iso3": "GBR",
    "numCode": "826",
    "phoneCode": "44",
    "currency": "GBP"
  },
  {
    "iso": "JO",
    "name": "JORDAN",
    "niceName": "Jordan",
    "iso3": "JOR",
    "numCode": "400",
    "phoneCode": "962",
    "currency": "JOD"
  },
  {
    "iso": "CZ",
    "name": "CZECH REPUBLIC",
    "niceName": "Czech Republic",
    "iso3": "CZE",
    "numCode": "203",
    "phoneCode": "420",
    "currency": "CZK"
  },
  {
    "iso": "US",
    "name": "UNITED STATES",
    "niceName": "United States",
    "iso3": "USA",
    "numCode": "840",
    "phoneCode": "1",
    "currency": "USD"
  },
  {
    "iso": "DK",
    "name": "DENMARK",
    "niceName": "Denmark",
    "iso3": "DNK",
    "numCode": "208",
    "phoneCode": "45",
    "currency": "DKK"
  },
  {
    "iso": "KZ",
    "name": "KAZAKHSTAN",
    "niceName": "Kazakhstan",
    "iso3": "KAZ",
    "numCode": "398",
    "phoneCode": "7",
    "currency": "KZT"
  },
  {
    "iso": "DJ",
    "name": "DJIBOUTI",
    "niceName": "Djibouti",
    "iso3": "DJI",
    "numCode": "262",
    "phoneCode": "253",
    "currency": "DJF"
  },
  {
    "iso": "UM",
    "name": "UNITED STATES MINOR OUTLYING ISLANDS",
    "niceName": "United States Minor Outlying Islands",
    "iso3": null,
    "numCode": null,
    "phoneCode": "1",
    "currency": "USD"
  },
  {
    "iso": "SZ",
    "name": "SWAZILAND",
    "niceName": "Swaziland",
    "iso3": "SWZ",
    "numCode": "748",
    "phoneCode": "268",
    "currency": "SZL"
  },
  {
    "iso": "SE",
    "name": "SWEDEN",
    "niceName": "Sweden",
    "iso3": "SWE",
    "numCode": "752",
    "phoneCode": "46",
    "currency": "SEK"
  },
  {
    "iso": "RO",
    "name": "ROMANIA",
    "niceName": "Romania",
    "iso3": "ROM",
    "numCode": "642",
    "phoneCode": "40",
    "currency": "RON"
  },
  {
    "iso": "RU",
    "name": "RUSSIAN FEDERATION",
    "niceName": "Russian Federation",
    "iso3": "RUS",
    "numCode": "643",
    "phoneCode": "70",
    "currency": "RUB"
  },
  {
    "iso": "PF",
    "name": "FRENCH POLYNESIA",
    "niceName": "French Polynesia",
    "iso3": "PYF",
    "numCode": "258",
    "phoneCode": "689",
    "currency": "XPF"
  },
  {
    "iso": "CH",
    "name": "SWITZERLAND",
    "niceName": "Switzerland",
    "iso3": "CHE",
    "numCode": "756",
    "phoneCode": "41",
    "currency": "CHF"
  },
  {
    "iso": "GA",
    "name": "GABON",
    "niceName": "Gabon",
    "iso3": "GAB",
    "numCode": "266",
    "phoneCode": "241",
    "currency": "XAF"
  },
  {
    "iso": "AE",
    "name": "UNITED ARAB EMIRATES",
    "niceName": "United Arab Emirates",
    "iso3": "ARE",
    "numCode": "784",
    "phoneCode": "971",
    "currency": "AED"
  },
  {
    "iso": "TJ",
    "name": "TAJIKISTAN",
    "niceName": "Tajikistan",
    "iso3": "TJK",
    "numCode": "762",
    "phoneCode": "992",
    "currency": "TJS"
  },
  {
    "iso": "AZ",
    "name": "AZERBAIJAN",
    "niceName": "Azerbaijan",
    "iso3": "AZE",
    "numCode": "31",
    "phoneCode": "994",
    "currency": "AZN"
  },
  {
    "iso": "EE",
    "name": "ESTONIA",
    "niceName": "Estonia",
    "iso3": "EST",
    "numCode": "233",
    "phoneCode": "372",
    "currency": "EUR"
  },
  {
    "iso": "ET",
    "name": "ETHIOPIA",
    "niceName": "Ethiopia",
    "iso3": "ETH",
    "numCode": "231",
    "phoneCode": "251",
    "currency": "ETB"
  },
  {
    "iso": "FO",
    "name": "FAROE ISLANDS",
    "niceName": "Faroe Islands",
    "iso3": "FRO",
    "numCode": "234",
    "phoneCode": "298",
    "currency": "DKK"
  },
  {
    "iso": "BS",
    "name": "BAHAMAS",
    "niceName": "Bahamas",
    "iso3": "BHS",
    "numCode": "44",
    "phoneCode": "1242",
    "currency": "BSD"
  },
  {
    "iso": "FI",
    "name": "FINLAND",
    "niceName": "Finland",
    "iso3": "FIN",
    "numCode": "246",
    "phoneCode": "358",
    "currency": "EUR"
  },
  {
    "iso": "BH",
    "name": "BAHRAIN",
    "niceName": "Bahrain",
    "iso3": "BHR",
    "numCode": "48",
    "phoneCode": "973",
    "currency": "BHD"
  },
  {
    "iso": "KE",
    "name": "KENYA",
    "niceName": "Kenya",
    "iso3": "KEN",
    "numCode": "404",
    "phoneCode": "254",
    "currency": "KES"
  },
  {
    "iso": "FR",
    "name": "FRANCE",
    "niceName": "France",
    "iso3": "FRA",
    "numCode": "250",
    "phoneCode": "33",
    "currency": "EUR"
  },
  {
    "iso": "KI",
    "name": "KIRIBATI",
    "niceName": "Kiribati",
    "iso3": "KIR",
    "numCode": "296",
    "phoneCode": "686",
    "currency": "AUD"
  },
  {
    "iso": "BD",
    "name": "BANGLADESH",
    "niceName": "Bangladesh",
    "iso3": "BGD",
    "numCode": "50",
    "phoneCode": "880",
    "currency": "BDT"
  },
  {
    "iso": "GF",
    "name": "FRENCH GUIANA",
    "niceName": "French Guiana",
    "iso3": "GUF",
    "numCode": "254",
    "phoneCode": "594",
    "currency": "EUR"
  },
  {
    "iso": "DM",
    "name": "DOMINICA",
    "niceName": "Dominica",
    "iso3": "DMA",
    "numCode": "212",
    "phoneCode": "1767",
    "currency": "XCD"
  },
  {
    "iso": "DO",
    "name": "DOMINICAN REPUBLIC",
    "niceName": "Dominican Republic",
    "iso3": "DOM",
    "numCode": "214",
    "phoneCode": "1809",
    "currency": "DOP"
  },
  {
    "iso": "EC",
    "name": "ECUADOR",
    "niceName": "Ecuador",
    "iso3": "ECU",
    "numCode": "218",
    "phoneCode": "593",
    "currency": "ECS"
  },
  {
    "iso": "EG",
    "name": "EGYPT",
    "niceName": "Egypt",
    "iso3": "EGY",
    "numCode": "818",
    "phoneCode": "20",
    "currency": "EGP"
  },
  {
    "iso": "SV",
    "name": "EL SALVADOR",
    "niceName": "El Salvador",
    "iso3": "SLV",
    "numCode": "222",
    "phoneCode": "503",
    "currency": "SVC"
  },
  {
    "iso": "GQ",
    "name": "EQUATORIAL GUINEA",
    "niceName": "Equatorial Guinea",
    "iso3": "GNQ",
    "numCode": "226",
    "phoneCode": "240",
    "currency": "XAF"
  },
  {
    "iso": "GM",
    "name": "GAMBIA",
    "niceName": "Gambia",
    "iso3": "GMB",
    "numCode": "270",
    "phoneCode": "220",
    "currency": "GMD"
  },
  {
    "iso": "ER",
    "name": "ERITREA",
    "niceName": "Eritrea",
    "iso3": "ERI",
    "numCode": "232",
    "phoneCode": "291",
    "currency": "ERN"
  },
  {
    "iso": "GE",
    "name": "GEORGIA",
    "niceName": "Georgia",
    "iso3": "GEO",
    "numCode": "268",
    "phoneCode": "995",
    "currency": "GEL"
  },
  {
    "iso": "MR",
    "name": "MAURITANIA",
    "niceName": "Mauritania",
    "iso3": "MRT",
    "numCode": "478",
    "phoneCode": "222",
    "currency": "MRO"
  },
  {
    "iso": "DE",
    "name": "GERMANY",
    "niceName": "Germany",
    "iso3": "DEU",
    "numCode": "276",
    "phoneCode": "49",
    "currency": "EUR"
  },
  {
    "iso": "MU",
    "name": "MAURITIUS",
    "niceName": "Mauritius",
    "iso3": "MUS",
    "numCode": "480",
    "phoneCode": "230",
    "currency": "MUR"
  },
  {
    "iso": "GH",
    "name": "GHANA",
    "niceName": "Ghana",
    "iso3": "GHA",
    "numCode": "288",
    "phoneCode": "233",
    "currency": "GHS"
  },
  {
    "iso": "YT",
    "name": "MAYOTTE",
    "niceName": "Mayotte",
    "iso3": null,
    "numCode": null,
    "phoneCode": "269",
    "currency": "EUR"
  },
  {
    "iso": "GI",
    "name": "GIBRALTAR",
    "niceName": "Gibraltar",
    "iso3": "GIB",
    "numCode": "292",
    "phoneCode": "350",
    "currency": "GIP"
  },
  {
    "iso": "MX",
    "name": "MEXICO",
    "niceName": "Mexico",
    "iso3": "MEX",
    "numCode": "484",
    "phoneCode": "52",
    "currency": "MXN"
  },
  {
    "iso": "GR",
    "name": "GREECE",
    "niceName": "Greece",
    "iso3": "GRC",
    "numCode": "300",
    "phoneCode": "30",
    "currency": "EUR"
  },
  {
    "iso": "FM",
    "name": "MICRONESIA, FEDERATED STATES OF",
    "niceName": "Micronesia, Federated States of",
    "iso3": "FSM",
    "numCode": "583",
    "phoneCode": "691",
    "currency": "USD"
  },
  {
    "iso": "GL",
    "name": "GREENLAND",
    "niceName": "Greenland",
    "iso3": "GRL",
    "numCode": "304",
    "phoneCode": "299",
    "currency": "DKK"
  },
  {
    "iso": "MC",
    "name": "MONACO",
    "niceName": "Monaco",
    "iso3": "MCO",
    "numCode": "492",
    "phoneCode": "377",
    "currency": "EUR"
  },
  {
    "iso": "MN",
    "name": "MONGOLIA",
    "niceName": "Mongolia",
    "iso3": "MNG",
    "numCode": "496",
    "phoneCode": "976",
    "currency": "MNT"
  },
  {
    "iso": "RW",
    "name": "RWANDA",
    "niceName": "Rwanda",
    "iso3": "RWA",
    "numCode": "646",
    "phoneCode": "250",
    "currency": "RWF"
  },
  {
    "iso": "MS",
    "name": "MONTSERRAT",
    "niceName": "Montserrat",
    "iso3": "MSR",
    "numCode": "500",
    "phoneCode": "1664",
    "currency": "XCD"
  },
  {
    "iso": "SH",
    "name": "SAINT HELENA",
    "niceName": "Saint Helena",
    "iso3": "SHN",
    "numCode": "654",
    "phoneCode": "290",
    "currency": "SHP"
  },
  {
    "iso": "MA",
    "name": "MOROCCO",
    "niceName": "Morocco",
    "iso3": "MAR",
    "numCode": "504",
    "phoneCode": "212",
    "currency": "MAD"
  },
  {
    "iso": "MZ",
    "name": "MOZAMBIQUE",
    "niceName": "Mozambique",
    "iso3": "MOZ",
    "numCode": "508",
    "phoneCode": "258",
    "currency": "MZN"
  },
  {
    "iso": "MM",
    "name": "MYANMAR",
    "niceName": "Myanmar",
    "iso3": "MMR",
    "numCode": "104",
    "phoneCode": "95",
    "currency": "MMR"
  },
  {
    "iso": "NA",
    "name": "NAMIBIA",
    "niceName": "Namibia",
    "iso3": "NAM",
    "numCode": "516",
    "phoneCode": "264",
    "currency": "NAD"
  },
  {
    "iso": "UY",
    "name": "URUGUAY",
    "niceName": "Uruguay",
    "iso3": "URY",
    "numCode": "858",
    "phoneCode": "598",
    "currency": "UYU"
  },
  {
    "iso": "PA",
    "name": "PANAMA",
    "niceName": "Panama",
    "iso3": "PAN",
    "numCode": "591",
    "phoneCode": "507",
    "currency": "PAB"
  },
  {
    "iso": "BB",
    "name": "BARBADOS",
    "niceName": "Barbados",
    "iso3": "BRB",
    "numCode": "52",
    "phoneCode": "1246",
    "currency": "BBD"
  },
  {
    "iso": "UZ",
    "name": "UZBEKISTAN",
    "niceName": "Uzbekistan",
    "iso3": "UZB",
    "numCode": "860",
    "phoneCode": "998",
    "currency": "UZS"
  },
  {
    "iso": "PG",
    "name": "PAPUA NEW GUINEA",
    "niceName": "Papua New Guinea",
    "iso3": "PNG",
    "numCode": "598",
    "phoneCode": "675",
    "currency": "PGK"
  },
  {
    "iso": "VU",
    "name": "VANUATU",
    "niceName": "Vanuatu",
    "iso3": "VUT",
    "numCode": "548",
    "phoneCode": "678",
    "currency": "VUV"
  },
  {
    "iso": "PY",
    "name": "PARAGUAY",
    "niceName": "Paraguay",
    "iso3": "PRY",
    "numCode": "600",
    "phoneCode": "595",
    "currency": "PYG"
  },
  {
    "iso": "VE",
    "name": "VENEZUELA",
    "niceName": "Venezuela",
    "iso3": "VEN",
    "numCode": "862",
    "phoneCode": "58",
    "currency": "VEF"
  },
  {
    "iso": "HU",
    "name": "HUNGARY",
    "niceName": "Hungary",
    "iso3": "HUN",
    "numCode": "348",
    "phoneCode": "36",
    "currency": "HUF"
  },
  {
    "iso": "PE",
    "name": "PERU",
    "niceName": "Peru",
    "iso3": "PER",
    "numCode": "604",
    "phoneCode": "51",
    "currency": "PEN"
  },
  {
    "iso": "IS",
    "name": "ICELAND",
    "niceName": "Iceland",
    "iso3": "ISL",
    "numCode": "352",
    "phoneCode": "354",
    "currency": "ISK"
  },
  {
    "iso": "PH",
    "name": "PHILIPPINES",
    "niceName": "Philippines",
    "iso3": "PHL",
    "numCode": "608",
    "phoneCode": "63",
    "currency": "PHP"
  },
  {
    "iso": "IN",
    "name": "INDIA",
    "niceName": "India",
    "iso3": "IND",
    "numCode": "356",
    "phoneCode": "91",
    "currency": "INR"
  },
  {
    "iso": "BY",
    "name": "BELARUS",
    "niceName": "Belarus",
    "iso3": "BLR",
    "numCode": "112",
    "phoneCode": "375",
    "currency": "BYR"
  },
  {
    "iso": "PN",
    "name": "PITCAIRN",
    "niceName": "Pitcairn",
    "iso3": "PCN",
    "numCode": "612",
    "phoneCode": "0",
    "currency": "NZD"
  },
  {
    "iso": "BE",
    "name": "BELGIUM",
    "niceName": "Belgium",
    "iso3": "BEL",
    "numCode": "56",
    "phoneCode": "32",
    "currency": "EUR"
  },
  {
    "iso": "PL",
    "name": "POLAND",
    "niceName": "Poland",
    "iso3": "POL",
    "numCode": "616",
    "phoneCode": "48",
    "currency": "PLN"
  },
  {
    "iso": "BZ",
    "name": "BELIZE",
    "niceName": "Belize",
    "iso3": "BLZ",
    "numCode": "84",
    "phoneCode": "501",
    "currency": "BZD"
  },
  {
    "iso": "ID",
    "name": "INDONESIA",
    "niceName": "Indonesia",
    "iso3": "IDN",
    "numCode": "360",
    "phoneCode": "62",
    "currency": "IDR"
  },
  {
    "iso": "BJ",
    "name": "BENIN",
    "niceName": "Benin",
    "iso3": "BEN",
    "numCode": "204",
    "phoneCode": "229",
    "currency": "XOF"
  },
  {
    "iso": "NR",
    "name": "NAURU",
    "niceName": "Nauru",
    "iso3": "NRU",
    "numCode": "520",
    "phoneCode": "674",
    "currency": "AUD"
  },
  {
    "iso": "BM",
    "name": "BERMUDA",
    "niceName": "Bermuda",
    "iso3": "BMU",
    "numCode": "60",
    "phoneCode": "1441",
    "currency": "BMD"
  },
  {
    "iso": "IQ",
    "name": "IRAQ",
    "niceName": "Iraq",
    "iso3": "IRQ",
    "numCode": "368",
    "phoneCode": "964",
    "currency": "IQD"
  },
  {
    "iso": "CX",
    "name": "CHRISTMAS ISLAND",
    "niceName": "Christmas Island",
    "iso3": null,
    "numCode": null,
    "phoneCode": "61",
    "currency": "AUD"
  },
  {
    "iso": "NP",
    "name": "NEPAL",
    "niceName": "Nepal",
    "iso3": "NPL",
    "numCode": "524",
    "phoneCode": "977",
    "currency": "NPR"
  },
  {
    "iso": "BT",
    "name": "BHUTAN",
    "niceName": "Bhutan",
    "iso3": "BTN",
    "numCode": "64",
    "phoneCode": "975",
    "currency": "BTN"
  },
  {
    "iso": "BO",
    "name": "BOLIVIA",
    "niceName": "Bolivia",
    "iso3": "BOL",
    "numCode": "68",
    "phoneCode": "591",
    "currency": "BOB"
  },
  {
    "iso": "MG",
    "name": "MADAGASCAR",
    "niceName": "Madagascar",
    "iso3": "MDG",
    "numCode": "450",
    "phoneCode": "261",
    "currency": "MGF"
  },
  {
    "iso": "MW",
    "name": "MALAWI",
    "niceName": "Malawi",
    "iso3": "MWI",
    "numCode": "454",
    "phoneCode": "265",
    "currency": "MWK"
  },
  {
    "iso": "BA",
    "name": "BOSNIA AND HERZEGOVINA",
    "niceName": "Bosnia and Herzegovina",
    "iso3": "BIH",
    "numCode": "70",
    "phoneCode": "387",
    "currency": "BAM"
  },
  {
    "iso": "MY",
    "name": "MALAYSIA",
    "niceName": "Malaysia",
    "iso3": "MYS",
    "numCode": "458",
    "phoneCode": "60",
    "currency": "MYR"
  },
  {
    "iso": "BW",
    "name": "BOTSWANA",
    "niceName": "Botswana",
    "iso3": "BWA",
    "numCode": "72",
    "phoneCode": "267",
    "currency": "BWP"
  },
  {
    "iso": "MV",
    "name": "MALDIVES",
    "niceName": "Maldives",
    "iso3": "MDV",
    "numCode": "462",
    "phoneCode": "960",
    "currency": "MVR"
  },
  {
    "iso": "ML",
    "name": "MALI",
    "niceName": "Mali",
    "iso3": "MLI",
    "numCode": "466",
    "phoneCode": "223",
    "currency": "XOF"
  },
  {
    "iso": "BV",
    "name": "BOUVET ISLAND",
    "niceName": "Bouvet Island",
    "iso3": null,
    "numCode": null,
    "phoneCode": "0",
    "currency": "NOK"
  },
  {
    "iso": "MT",
    "name": "MALTA",
    "niceName": "Malta",
    "iso3": "MLT",
    "numCode": "470",
    "phoneCode": "356",
    "currency": "EUR"
  },
  {
    "iso": "GW",
    "name": "GUINEA-BISSAU",
    "niceName": "Guinea-Bissau",
    "iso3": "GNB",
    "numCode": "624",
    "phoneCode": "245",
    "currency": "CFA"
  },
  {
    "iso": "MH",
    "name": "MARSHALL ISLANDS",
    "niceName": "Marshall Islands",
    "iso3": "MHL",
    "numCode": "584",
    "phoneCode": "692",
    "currency": "USD"
  },
  {
    "iso": "GY",
    "name": "GUYANA",
    "niceName": "Guyana",
    "iso3": "GUY",
    "numCode": "328",
    "phoneCode": "592",
    "currency": "GYD"
  },
  {
    "iso": "MQ",
    "name": "MARTINIQUE",
    "niceName": "Martinique",
    "iso3": "MTQ",
    "numCode": "474",
    "phoneCode": "596",
    "currency": "EUR"
  },
  {
    "iso": "HT",
    "name": "HAITI",
    "niceName": "Haiti",
    "iso3": "HTI",
    "numCode": "332",
    "phoneCode": "509",
    "currency": "HTG"
  },
  {
    "iso": "LR",
    "name": "LIBERIA",
    "niceName": "Liberia",
    "iso3": "LBR",
    "numCode": "430",
    "phoneCode": "231",
    "currency": "LRD"
  },
  {
    "iso": "LY",
    "name": "LIBYAN ARAB JAMAHIRIYA",
    "niceName": "Libyan Arab Jamahiriya",
    "iso3": "LBY",
    "numCode": "434",
    "phoneCode": "218",
    "currency": "LYD"
  },
  {
    "iso": "VA",
    "name": "HOLY SEE (VATICAN CITY STATE)",
    "niceName": "Holy See (Vatican City State)",
    "iso3": "VAT",
    "numCode": "336",
    "phoneCode": "39",
    "currency": "EUR"
  },
  {
    "iso": "LI",
    "name": "LIECHTENSTEIN",
    "niceName": "Liechtenstein",
    "iso3": "LIE",
    "numCode": "438",
    "phoneCode": "423",
    "currency": "CHF"
  },
  {
    "iso": "HN",
    "name": "HONDURAS",
    "niceName": "Honduras",
    "iso3": "HND",
    "numCode": "340",
    "phoneCode": "504",
    "currency": "HNL"
  },
  {
    "iso": "LT",
    "name": "LITHUANIA",
    "niceName": "Lithuania",
    "iso3": "LTU",
    "numCode": "440",
    "phoneCode": "370",
    "currency": "LTL"
  },
  {
    "iso": "HK",
    "name": "HONG KONG",
    "niceName": "Hong Kong",
    "iso3": "HKG",
    "numCode": "344",
    "phoneCode": "852",
    "currency": "HKD"
  },
  {
    "iso": "LU",
    "name": "LUXEMBOURG",
    "niceName": "Luxembourg",
    "iso3": "LUX",
    "numCode": "442",
    "phoneCode": "352",
    "currency": "EUR"
  },
  {
    "iso": "MO",
    "name": "MACAO",
    "niceName": "Macao",
    "iso3": "MAC",
    "numCode": "446",
    "phoneCode": "853",
    "currency": "MOP"
  },
  {
    "iso": "AF",
    "name": "AFGHANISTAN",
    "niceName": "Afghanistan",
    "iso3": "AFG",
    "numCode": "4",
    "phoneCode": "93",
    "currency": "AFN"
  },
  {
    "iso": "AL",
    "name": "ALBANIA",
    "niceName": "Albania",
    "iso3": "ALB",
    "numCode": "8",
    "phoneCode": "355",
    "currency": "ALL"
  },
  {
    "iso": "DZ",
    "name": "ALGERIA",
    "niceName": "Algeria",
    "iso3": "DZA",
    "numCode": "12",
    "phoneCode": "213",
    "currency": "DZD"
  },
  {
    "iso": "AS",
    "name": "AMERICAN SAMOA",
    "niceName": "American Samoa",
    "iso3": "ASM",
    "numCode": "16",
    "phoneCode": "1684",
    "currency": "USD"
  },
  {
    "iso": "AD",
    "name": "ANDORRA",
    "niceName": "Andorra",
    "iso3": "AND",
    "numCode": "20",
    "phoneCode": "376",
    "currency": "EUR"
  },
  {
    "iso": "IE",
    "name": "IRELAND",
    "niceName": "Ireland",
    "iso3": "IRL",
    "numCode": "372",
    "phoneCode": "353",
    "currency": "EUR"
  },
  {
    "iso": "AO",
    "name": "ANGOLA",
    "niceName": "Angola",
    "iso3": "AGO",
    "numCode": "24",
    "phoneCode": "244",
    "currency": "AOA"
  },
  {
    "iso": "IL",
    "name": "ISRAEL",
    "niceName": "Israel",
    "iso3": "ISR",
    "numCode": "376",
    "phoneCode": "972",
    "currency": "ILS"
  },
  {
    "iso": "AI",
    "name": "ANGUILLA",
    "niceName": "Anguilla",
    "iso3": "AIA",
    "numCode": "660",
    "phoneCode": "1264",
    "currency": "XCD"
  },
  {
    "iso": "CC",
    "name": "COCOS (KEELING) ISLANDS",
    "niceName": "Cocos (Keeling) Islands",
    "iso3": null,
    "numCode": null,
    "phoneCode": "672",
    "currency": "AUD"
  },
  {
    "iso": "CO",
    "name": "COLOMBIA",
    "niceName": "Colombia",
    "iso3": "COL",
    "numCode": "170",
    "phoneCode": "57",
    "currency": "COP"
  },
  {
    "iso": "AQ",
    "name": "ANTARCTICA",
    "niceName": "Antarctica",
    "iso3": null,
    "numCode": null,
    "phoneCode": "0",
    "currency": "XCD"
  },
  {
    "iso": "KM",
    "name": "COMOROS",
    "niceName": "Comoros",
    "iso3": "COM",
    "numCode": "174",
    "phoneCode": "269",
    "currency": "KMF"
  },
  {
    "iso": "CG",
    "name": "CONGO",
    "niceName": "Congo",
    "iso3": "COG",
    "numCode": "178",
    "phoneCode": "242",
    "currency": "XAF"
  },
  {
    "iso": "CK",
    "name": "COOK ISLANDS",
    "niceName": "Cook Islands",
    "iso3": "COK",
    "numCode": "184",
    "phoneCode": "682",
    "currency": "NZD"
  },
  {
    "iso": "AG",
    "name": "ANTIGUA AND BARBUDA",
    "niceName": "Antigua and Barbuda",
    "iso3": "ATG",
    "numCode": "28",
    "phoneCode": "1268",
    "currency": "XCD"
  },
  {
    "iso": "AR",
    "name": "ARGENTINA",
    "niceName": "Argentina",
    "iso3": "ARG",
    "numCode": "32",
    "phoneCode": "54",
    "currency": "ARS"
  },
  {
    "iso": "AM",
    "name": "ARMENIA",
    "niceName": "Armenia",
    "iso3": "ARM",
    "numCode": "51",
    "phoneCode": "374",
    "currency": "AMD"
  },
  {
    "iso": "AW",
    "name": "ARUBA",
    "niceName": "Aruba",
    "iso3": "ABW",
    "numCode": "533",
    "phoneCode": "297",
    "currency": "AWG"
  },
  {
    "iso": "AU",
    "name": "AUSTRALIA",
    "niceName": "Australia",
    "iso3": "AUS",
    "numCode": "36",
    "phoneCode": "61",
    "currency": "AUD"
  },
  {
    "iso": "AT",
    "name": "AUSTRIA",
    "niceName": "Austria",
    "iso3": "AUT",
    "numCode": "40",
    "phoneCode": "43",
    "currency": "EUR"
  },
  {
    "iso": "GD",
    "name": "GRENADA",
    "niceName": "Grenada",
    "iso3": "GRD",
    "numCode": "308",
    "phoneCode": "1473",
    "currency": "XCD"
  },
  {
    "iso": "GP",
    "name": "GUADELOUPE",
    "niceName": "Guadeloupe",
    "iso3": "GLP",
    "numCode": "312",
    "phoneCode": "590",
    "currency": "EUR"
  },
  {
    "iso": "GU",
    "name": "GUAM",
    "niceName": "Guam",
    "iso3": "GUM",
    "numCode": "316",
    "phoneCode": "1671",
    "currency": "USD"
  },
  {
    "iso": "GT",
    "name": "GUATEMALA",
    "niceName": "Guatemala",
    "iso3": "GTM",
    "numCode": "320",
    "phoneCode": "502",
    "currency": "QTQ"
  },
  {
    "iso": "GN",
    "name": "GUINEA",
    "niceName": "Guinea",
    "iso3": "GIN",
    "numCode": "324",
    "phoneCode": "224",
    "currency": "GNF"
  },
  {
    "iso": "KW",
    "name": "KUWAIT",
    "niceName": "Kuwait",
    "iso3": "KWT",
    "numCode": "414",
    "phoneCode": "965",
    "currency": "KWD"
  },
  {
    "iso": "KG",
    "name": "KYRGYZSTAN",
    "niceName": "Kyrgyzstan",
    "iso3": "KGZ",
    "numCode": "417",
    "phoneCode": "996",
    "currency": "KGS"
  },
  {
    "iso": "LV",
    "name": "LATVIA",
    "niceName": "Latvia",
    "iso3": "LVA",
    "numCode": "428",
    "phoneCode": "371",
    "currency": "LVL"
  },
  {
    "iso": "LB",
    "name": "LEBANON",
    "niceName": "Lebanon",
    "iso3": "LBN",
    "numCode": "422",
    "phoneCode": "961",
    "currency": "LBP"
  },
  {
    "iso": "LS",
    "name": "LESOTHO",
    "niceName": "Lesotho",
    "iso3": "LSO",
    "numCode": "426",
    "phoneCode": "266",
    "currency": "LSL"
  },
  {
    "iso": "LC",
    "name": "SAINT LUCIA",
    "niceName": "Saint Lucia",
    "iso3": "LCA",
    "numCode": "662",
    "phoneCode": "1758",
    "currency": "XCD"
  },
  {
    "iso": "PM",
    "name": "SAINT PIERRE AND MIQUELON",
    "niceName": "Saint Pierre and Miquelon",
    "iso3": "SPM",
    "numCode": "666",
    "phoneCode": "508",
    "currency": "EUR"
  },
  {
    "iso": "VC",
    "name": "SAINT VINCENT AND THE GRENADINES",
    "niceName": "Saint Vincent and the Grenadines",
    "iso3": "VCT",
    "numCode": "670",
    "phoneCode": "1784",
    "currency": "XCD"
  },
  {
    "iso": "WS",
    "name": "SAMOA",
    "niceName": "Samoa",
    "iso3": "WSM",
    "numCode": "882",
    "phoneCode": "684",
    "currency": "WST"
  },
  {
    "iso": "SM",
    "name": "SAN MARINO",
    "niceName": "San Marino",
    "iso3": "SMR",
    "numCode": "674",
    "phoneCode": "378",
    "currency": "EUR"
  },
  {
    "iso": "ST",
    "name": "SAO TOME AND PRINCIPE",
    "niceName": "Sao Tome and Principe",
    "iso3": "STP",
    "numCode": "678",
    "phoneCode": "239",
    "currency": "STD"
  }
]
